{
  "type": "FeatureCollection",
  "features": [
    {
      "type": "Feature",
      "properties": {
        "norad_id": 39617,
        "name": "ASTRA 5B (EGNOS/PRN 123)",
        "group": "gnss",
        "lat": -0.06689783166667564,
        "lon": -83.57774296925179,
        "alt_km": 35767.7796109863,
        "timestamp": "2025-12-10T11:33:53.628224+00:00",
        "meta_object_name": "ASTRA 5B (EGNOS/PRN 123)",
        "meta_object_id": "2014-011B",
        "meta_epoch": "2025-12-09T22:19:38.693280",
        "meta_mean_motion": 1.00270793,
        "meta_eccentricity": 0.0004493,
        "meta_inclination": 0.0565,
        "meta_ra_of_asc_node": 32.2298,
        "meta_arg_of_pericenter": 231.0546,
        "meta_mean_anomaly": 174.025,
        "meta_ephemeris_type": 0,
        "meta_classification_type": "U",
        "meta_norad_cat_id": 39617,
        "meta_element_set_no": 999,
        "meta_rev_at_epoch": 4277,
        "meta_bstar": 0,
        "meta_mean_motion_dot": 1.4e-06,
        "meta_mean_motion_ddot": 0,
        "tle_line1": "1 39617U 14011B   25343.93030895  .00000140  00000+0  00000+0 0  9990",
        "tle_line2": "2 39617   0.0565  32.2298 0004493 231.0546 174.0250  1.00270793 42779"
      },
      "geometry": {
        "type": "Point",
        "coordinates": [
          -83.57774296925179,
          -0.06689783166667564
        ]
      }
    },
    {
      "type": "Feature",
      "properties": {
        "norad_id": 39620,
        "name": "COSMOS 2492 (754)",
        "group": "gnss",
        "lat": -14.204989985717955,
        "lon": 146.99200370160983,
        "alt_km": 19147.621732203632,
        "timestamp": "2025-12-10T11:33:53.628235+00:00",
        "meta_object_name": "COSMOS 2492 (754)",
        "meta_object_id": "2014-012A",
        "meta_epoch": "2025-12-09T06:54:46.186848",
        "meta_mean_motion": 2.13102988,
        "meta_eccentricity": 0.00142075,
        "meta_inclination": 65.4097,
        "meta_ra_of_asc_node": 320.3884,
        "meta_arg_of_pericenter": 310.998,
        "meta_mean_anomaly": 48.8757,
        "meta_ephemeris_type": 0,
        "meta_classification_type": "U",
        "meta_norad_cat_id": 39620,
        "meta_element_set_no": 999,
        "meta_rev_at_epoch": 9119,
        "meta_bstar": 0,
        "meta_mean_motion_dot": -4.9e-07,
        "meta_mean_motion_ddot": 0,
        "tle_line1": "1 39620U 14012A   25343.28803457 -.00000049  00000+0  00000+0 0  9994",
        "tle_line2": "2 39620  65.4097 320.3884 0014207 310.9980  48.8757  2.13102988 91198"
      },
      "geometry": {
        "type": "Point",
        "coordinates": [
          146.99200370160983,
          -14.204989985717955
        ]
      }
    },
    {
      "type": "Feature",
      "properties": {
        "norad_id": 39635,
        "name": "IRNSS-1B",
        "group": "gnss",
        "lat": 25.74270825433153,
        "lon": -55.23152679163647,
        "alt_km": 35817.36544731478,
        "timestamp": "2025-12-10T11:33:53.628246+00:00",
        "meta_object_name": "IRNSS-1B",
        "meta_object_id": "2014-017A",
        "meta_epoch": "2025-12-07T19:02:08.350080",
        "meta_mean_motion": 1.00276938,
        "meta_eccentricity": 0.00176548,
        "meta_inclination": 28.8332,
        "meta_ra_of_asc_node": 243.6763,
        "meta_arg_of_pericenter": 183.0277,
        "meta_mean_anomaly": 350.7455,
        "meta_ephemeris_type": 0,
        "meta_classification_type": "U",
        "meta_norad_cat_id": 39635,
        "meta_element_set_no": 999,
        "meta_rev_at_epoch": 4287,
        "meta_bstar": 0,
        "meta_mean_motion_dot": 1.18e-06,
        "meta_mean_motion_ddot": 0,
        "tle_line1": "1 39635U 14017A   25341.79315220  .00000118  00000+0  00000+0 0  9991",
        "tle_line2": "2 39635  28.8332 243.6763 0017654 183.0277 350.7455  1.00276938 42872"
      },
      "geometry": {
        "type": "Point",
        "coordinates": [
          -55.23152679163647,
          25.74270825433153
        ]
      }
    },
    {
      "type": "Feature",
      "properties": {
        "norad_id": 39727,
        "name": "LUCH 5V (SDCM/PRN 141)",
        "group": "gnss",
        "lat": -4.637657458055447,
        "lon": -12.232764381518388,
        "alt_km": 35782.20027679918,
        "timestamp": "2025-12-10T11:33:53.628258+00:00",
        "meta_object_name": "LUCH 5V (SDCM/PRN 141)",
        "meta_object_id": "2014-023A",
        "meta_epoch": "2025-12-09T19:09:38.791296",
        "meta_mean_motion": 1.00269824,
        "meta_eccentricity": 0.0004642,
        "meta_inclination": 4.662,
        "meta_ra_of_asc_node": 71.5584,
        "meta_arg_of_pericenter": 201.3365,
        "meta_mean_anomaly": 188.0676,
        "meta_ephemeris_type": 0,
        "meta_classification_type": "U",
        "meta_norad_cat_id": 39727,
        "meta_element_set_no": 999,
        "meta_rev_at_epoch": 4246,
        "meta_bstar": 0,
        "meta_mean_motion_dot": -2.67e-06,
        "meta_mean_motion_ddot": 0,
        "tle_line1": "1 39727U 14023A   25343.79836564 -.00000267  00000+0  00000+0 0  9997",
        "tle_line2": "2 39727   4.6620  71.5584 0004642 201.3365 188.0676  1.00269824 42468"
      },
      "geometry": {
        "type": "Point",
        "coordinates": [
          -12.232764381518388,
          -4.637657458055447
        ]
      }
    },
    {
      "type": "Feature",
      "properties": {
        "norad_id": 39741,
        "name": "GPS BIIF-6  (PRN 06)",
        "group": "gnss",
        "lat": -10.665830764877905,
        "lon": -28.28326585136449,
        "alt_km": 20092.926350214635,
        "timestamp": "2025-12-10T11:33:53.628270+00:00",
        "meta_object_name": "GPS BIIF-6  (PRN 06)",
        "meta_object_id": "2014-026A",
        "meta_epoch": "2025-12-10T00:01:18.986880",
        "meta_mean_motion": 2.00561492,
        "meta_eccentricity": 0.0039114,
        "meta_inclination": 56.5847,
        "meta_ra_of_asc_node": 338.8829,
        "meta_arg_of_pericenter": 318.5217,
        "meta_mean_anomaly": 41.1927,
        "meta_ephemeris_type": 0,
        "meta_classification_type": "U",
        "meta_norad_cat_id": 39741,
        "meta_element_set_no": 999,
        "meta_rev_at_epoch": 8474,
        "meta_bstar": 0,
        "meta_mean_motion_dot": -8.4e-07,
        "meta_mean_motion_ddot": 0,
        "tle_line1": "1 39741U 14026A   25344.00091420 -.00000084  00000+0  00000+0 0  9992",
        "tle_line2": "2 39741  56.5847 338.8829 0039114 318.5217  41.1927  2.00561492 84743"
      },
      "geometry": {
        "type": "Point",
        "coordinates": [
          -28.28326585136449,
          -10.665830764877905
        ]
      }
    },
    {
      "type": "Feature",
      "properties": {
        "norad_id": 40001,
        "name": "COSMOS 2500 (755)",
        "group": "gnss",
        "lat": 54.52530380334184,
        "lon": 0.21541313057490885,
        "alt_km": 19142.753892395984,
        "timestamp": "2025-12-10T11:33:53.628281+00:00",
        "meta_object_name": "COSMOS 2500 (755)",
        "meta_object_id": "2014-032A",
        "meta_epoch": "2025-12-09T11:02:48.490944",
        "meta_mean_motion": 2.13105796,
        "meta_eccentricity": 0.000831,
        "meta_inclination": 65.3451,
        "meta_ra_of_asc_node": 320.1442,
        "meta_arg_of_pericenter": 219.1348,
        "meta_mean_anomaly": 140.802,
        "meta_ephemeris_type": 0,
        "meta_classification_type": "U",
        "meta_norad_cat_id": 40001,
        "meta_element_set_no": 999,
        "meta_rev_at_epoch": 8941,
        "meta_bstar": 0,
        "meta_mean_motion_dot": -4.9e-07,
        "meta_mean_motion_ddot": 0,
        "tle_line1": "1 40001U 14032A   25343.46028346 -.00000049  00000+0  00000+0 0  9997",
        "tle_line2": "2 40001  65.3451 320.1442 0008310 219.1348 140.8020  2.13105796 89418"
      },
      "geometry": {
        "type": "Point",
        "coordinates": [
          0.21541313057490885,
          54.52530380334184
        ]
      }
    },
    {
      "type": "Feature",
      "properties": {
        "norad_id": 40105,
        "name": "GPS BIIF-7  (PRN 09)",
        "group": "gnss",
        "lat": -52.7255023309981,
        "lon": 30.227125454469416,
        "alt_km": 20270.993975152138,
        "timestamp": "2025-12-10T11:33:53.628294+00:00",
        "meta_object_name": "GPS BIIF-7  (PRN 09)",
        "meta_object_id": "2014-045A",
        "meta_epoch": "2025-12-09T14:09:41.937408",
        "meta_mean_motion": 2.00572274,
        "meta_eccentricity": 0.0032763,
        "meta_inclination": 55.2273,
        "meta_ra_of_asc_node": 96.0246,
        "meta_arg_of_pericenter": 119.7913,
        "meta_mean_anomaly": 240.5219,
        "meta_ephemeris_type": 0,
        "meta_classification_type": "U",
        "meta_norad_cat_id": 40105,
        "meta_element_set_no": 999,
        "meta_rev_at_epoch": 8227,
        "meta_bstar": 0,
        "meta_mean_motion_dot": 2e-08,
        "meta_mean_motion_ddot": 0,
        "tle_line1": "1 40105U 14045A   25343.59006872  .00000002  00000+0  00000+0 0  9998",
        "tle_line2": "2 40105  55.2273  96.0246 0032763 119.7913 240.5219  2.00572274 82276"
      },
      "geometry": {
        "type": "Point",
        "coordinates": [
          30.227125454469416,
          -52.7255023309981
        ]
      }
    }
  ]
}